[
    {
        "Altitude(m)": 706789.0347691446,
        "Argument of Periapsis(deg)": 0.007973084830638947,
        "Eccentricity": 0.0,
        "Inclination(deg)": 45.0,
        "Latitude(deg)": 42.84542542762344,
        "Longitude(deg)": -123.23758691037614,
        "Mean Anomaly(deg)": 73.52775165323656,
        "RAAN(deg)": 269.99247364097926,
        "Satellite Name": "Constellation 1 1192",
        "Satellite Number": 1192,
        "Semi-Major Axis(m)": 7083131.272910544,
        "Time(s)": 133
    },
    {
        "Altitude(m)": 706792.7239967673,
        "Argument of Periapsis(deg)": 0.008033032836884352,
        "Eccentricity": 0.0,
        "Inclination(deg)": 45.0,
        "Latitude(deg)": 42.86200613273276,
        "Longitude(deg)": -123.16218769298297,
        "Mean Anomaly(deg)": 73.58845279348645,
        "RAAN(deg)": 269.99241705181373,
        "Satellite Name": "Constellation 1 1192",
        "Satellite Number": 1192,
        "Semi-Major Axis(m)": 7083131.272910544,
        "Time(s)": 134
    },
    {
        "Altitude(m)": 706796.4016177311,
        "Argument of Periapsis(deg)": 0.008092980843129758,
        "Eccentricity": 0.0,
        "Inclination(deg)": 45.0,
        "Latitude(deg)": 42.87853156982098,
        "Longitude(deg)": -123.08674601455628,
        "Mean Anomaly(deg)": 73.64915393373633,
        "RAAN(deg)": 269.9923604626481,
        "Satellite Name": "Constellation 1 1192",
        "Satellite Number": 1192,
        "Semi-Major Axis(m)": 7083131.272910544,
        "Time(s)": 135
    },
    {
        "Altitude(m)": 706800.0676102524,
        "Argument of Periapsis(deg)": 0.008152928849375162,
        "Eccentricity": 0.0,
        "Inclination(deg)": 45.0,
        "Latitude(deg)": 42.89500167804147,
        "Longitude(deg)": -123.01126196978949,
        "Mean Anomaly(deg)": 73.70985507398628,
        "RAAN(deg)": 269.9923038734825,
        "Satellite Name": "Constellation 1 1192",
        "Satellite Number": 1192,
        "Semi-Major Axis(m)": 7083131.272910544,
        "Time(s)": 136
    },
    {
        "Altitude(m)": 706803.7219526249,
        "Argument of Periapsis(deg)": 0.008212876855620568,
        "Eccentricity": 0.0,
        "Inclination(deg)": 45.0,
        "Latitude(deg)": 42.91141639666846,
        "Longitude(deg)": -122.9357356539416,
        "Mean Anomaly(deg)": 73.77055621423615,
        "RAAN(deg)": 269.992247284317,
        "Satellite Name": "Constellation 1 1192",
        "Satellite Number": 1192,
        "Semi-Major Axis(m)": 7083131.272910544,
        "Time(s)": 137
    },
    {
        "Altitude(m)": 706807.3646232013,
        "Argument of Periapsis(deg)": 0.008272824861865974,
        "Eccentricity": 0.0,
        "Inclination(deg)": 45.0,
        "Latitude(deg)": 42.927775665098295,
        "Longitude(deg)": -122.86016716283736,
        "Mean Anomaly(deg)": 73.83125735448606,
        "RAAN(deg)": 269.9921906951514,
        "Satellite Name": "Constellation 1 1192",
        "Satellite Number": 1192,
        "Semi-Major Axis(m)": 7083131.272910544,
        "Time(s)": 138
    },
    {
        "Altitude(m)": 706810.995600421,
        "Argument of Periapsis(deg)": 0.00833277286811138,
        "Eccentricity": 0.0,
        "Inclination(deg)": 45.0,
        "Latitude(deg)": 42.944079422850095,
        "Longitude(deg)": -122.78455659286696,
        "Mean Anomaly(deg)": 73.89195849473599,
        "RAAN(deg)": 269.9921341059858,
        "Satellite Name": "Constellation 1 1192",
        "Satellite Number": 1192,
        "Semi-Major Axis(m)": 7083131.272910544,
        "Time(s)": 139
    },
    {
        "Altitude(m)": 706814.6148627838,
        "Argument of Periapsis(deg)": 0.008392720874356788,
        "Eccentricity": 0.0,
        "Inclination(deg)": 45.0,
        "Latitude(deg)": 42.960327609566775,
        "Longitude(deg)": -122.70890404098621,
        "Mean Anomaly(deg)": 73.95265963498588,
        "RAAN(deg)": 269.99207751682025,
        "Satellite Name": "Constellation 1 1192",
        "Satellite Number": 1192,
        "Semi-Major Axis(m)": 7083131.272910544,
        "Time(s)": 140
    },
    {
        "Altitude(m)": 706818.222388869,
        "Argument of Periapsis(deg)": 0.008452668880602192,
        "Eccentricity": 0.0,
        "Inclination(deg)": 45.0,
        "Latitude(deg)": 42.976520165016204,
        "Longitude(deg)": -122.63320977281306,
        "Mean Anomaly(deg)": 74.01336077523575,
        "RAAN(deg)": 269.9920209276547,
        "Satellite Name": "Constellation 1 1192",
        "Satellite Number": 1192,
        "Semi-Major Axis(m)": 7083131.272910544,
        "Time(s)": 141
    },
    {
        "Altitude(m)": 706821.8181573213,
        "Argument of Periapsis(deg)": 0.008512616886847598,
        "Eccentricity": 0.0,
        "Inclination(deg)": 45.0,
        "Latitude(deg)": 42.992657029091205,
        "Longitude(deg)": -122.55747355024035,
        "Mean Anomaly(deg)": 74.07406191548564,
        "RAAN(deg)": 269.99196433848914,
        "Satellite Name": "Constellation 1 1192",
        "Satellite Number": 1192,
        "Semi-Major Axis(m)": 7083131.272910544,
        "Time(s)": 142
    },
    {
        "Altitude(m)": 706825.4021468655,
        "Argument of Periapsis(deg)": 0.008572564893093004,
        "Eccentricity": 0.0,
        "Inclination(deg)": 45.0,
        "Latitude(deg)": 43.00873814181172,
        "Longitude(deg)": -122.48169564001667,
        "Mean Anomaly(deg)": 74.13476305573559,
        "RAAN(deg)": 269.99190774932356,
        "Satellite Name": "Constellation 1 1192",
        "Satellite Number": 1192,
        "Semi-Major Axis(m)": 7083131.272910544,
        "Time(s)": 143
    },
    {
        "Altitude(m)": 706828.9743362907,
        "Argument of Periapsis(deg)": 0.008632512899338408,
        "Eccentricity": 0.0,
        "Inclination(deg)": 45.0,
        "Latitude(deg)": 43.02476344332494,
        "Longitude(deg)": -122.40587614135872,
        "Mean Anomaly(deg)": 74.19546419598547,
        "RAAN(deg)": 269.991851160158,
        "Satellite Name": "Constellation 1 1192",
        "Satellite Number": 1192,
        "Semi-Major Axis(m)": 7083131.272910544,
        "Time(s)": 144
    },
    {
        "Altitude(m)": 706832.5347044617,
        "Argument of Periapsis(deg)": 0.008692460905583814,
        "Eccentricity": 0.0,
        "Inclination(deg)": 45.0,
        "Latitude(deg)": 43.0407328739064,
        "Longitude(deg)": -122.33001515404837,
        "Mean Anomaly(deg)": 74.25616533623536,
        "RAAN(deg)": 269.9917945709924,
        "Satellite Name": "Constellation 1 1192",
        "Satellite Number": 1192,
        "Semi-Major Axis(m)": 7083131.272910544,
        "Time(s)": 145
    },
    {
        "Altitude(m)": 706836.0832303157,
        "Argument of Periapsis(deg)": 0.00875240891182922,
        "Eccentricity": 0.0,
        "Inclination(deg)": 45.0,
        "Latitude(deg)": 43.05664637396092,
        "Longitude(deg)": -122.25411277843223,
        "Mean Anomaly(deg)": 74.31686647648529,
        "RAAN(deg)": 269.9917379818269,
        "Satellite Name": "Constellation 1 1192",
        "Satellite Number": 1192,
        "Semi-Major Axis(m)": 7083131.272910544,
        "Time(s)": 146
    },
    {
        "Altitude(m)": 706839.6198928675,
        "Argument of Periapsis(deg)": 0.008812356918074627,
        "Eccentricity": 0.0,
        "Inclination(deg)": 45.0,
        "Latitude(deg)": 43.07250388402348,
        "Longitude(deg)": -122.17816911542178,
        "Mean Anomaly(deg)": 74.37756761673518,
        "RAAN(deg)": 269.9916813926613,
        "Satellite Name": "Constellation 1 1192",
        "Satellite Number": 1192,
        "Semi-Major Axis(m)": 7083131.272910544,
        "Time(s)": 147
    },
    {
        "Altitude(m)": 706843.1446711916,
        "Argument of Periapsis(deg)": 0.008872304924320031,
        "Eccentricity": 0.0,
        "Inclination(deg)": 45.0,
        "Latitude(deg)": 43.088305344760386,
        "Longitude(deg)": -122.10218443458925,
        "Mean Anomaly(deg)": 74.43826875698507,
        "RAAN(deg)": 269.9916248034957,
        "Satellite Name": "Constellation 1 1192",
        "Satellite Number": 1192,
        "Semi-Major Axis(m)": 7083131.272910544,
        "Time(s)": 148
    },
    {
        "Altitude(m)": 706846.6575444451,
        "Argument of Periapsis(deg)": 0.008932252930565437,
        "Eccentricity": 0.0,
        "Inclination(deg)": 45.0,
        "Latitude(deg)": 43.10405069696931,
        "Longitude(deg)": -122.02615850178114,
        "Mean Anomaly(deg)": 74.49896989723494,
        "RAAN(deg)": 269.99156821433013,
        "Satellite Name": "Constellation 1 1192",
        "Satellite Number": 1192,
        "Semi-Major Axis(m)": 7083131.272910544,
        "Time(s)": 149
    },
    {
        "Altitude(m)": 706850.1584918628,
        "Argument of Periapsis(deg)": 0.008992200936810843,
        "Eccentricity": 0.0,
        "Inclination(deg)": 45.0,
        "Latitude(deg)": 43.11973988158145,
        "Longitude(deg)": -121.95009158769837,
        "Mean Anomaly(deg)": 74.55967103748489,
        "RAAN(deg)": 269.99151162516455,
        "Satellite Name": "Constellation 1 1192",
        "Satellite Number": 1192,
        "Semi-Major Axis(m)": 7083131.272910544,
        "Time(s)": 150
    },
    {
        "Altitude(m)": 706853.647492737,
        "Argument of Periapsis(deg)": 0.009052148943056249,
        "Eccentricity": 0.0,
        "Inclination(deg)": 45.0,
        "Latitude(deg)": 43.13537283966171,
        "Longitude(deg)": -121.87398379550888,
        "Mean Anomaly(deg)": 74.62037217773478,
        "RAAN(deg)": 269.991455035999,
        "Satellite Name": "Constellation 1 1192",
        "Satellite Number": 1192,
        "Semi-Major Axis(m)": 7083131.272910544,
        "Time(s)": 151
    }
]